CCSDS_OMM_VERS = 2.0
CREATION_DATE  = 
ORIGINATOR     = 

OBJECT_NAME    = TITAN 4B R/B
OBJECT_ID      = 2000-047B
CENTER_NAME    = EARTH
REF_FRAME      = TEME
TIME_SYSTEM    = UTC
MEAN_ELEMENT_THEORY = SGP/SGP4

EPOCH          = 2025-11-04T03:43:57.823104
MEAN_MOTION    = 15.08350940
ECCENTRICITY   = .0042672
INCLINATION    = 67.9920
RA_OF_ASC_NODE = 33.1854
ARG_OF_PERICENTER = 189.1062
MEAN_ANOMALY   = 170.9318

EPHEMERIS_TYPE = 0
CLASSIFICATION_TYPE = U
NORAD_CAT_ID   = 26474
ELEMENT_SET_NO = 999
REV_AT_EPOCH   = 37397
BSTAR          = .33986E-3
MEAN_MOTION_DOT = .5271E-4
MEAN_MOTION_DDOT = 0

CCSDS_OMM_VERS = 2.0
CREATION_DATE  = 
ORIGINATOR     = 

OBJECT_NAME    = ENVISAT
OBJECT_ID      = 2002-009A
CENTER_NAME    = EARTH
REF_FRAME      = TEME
TIME_SYSTEM    = UTC
MEAN_ELEMENT_THEORY = SGP/SGP4

EPOCH          = 2025-11-04T03:58:34.292352
MEAN_MOTION    = 14.38976907
ECCENTRICITY   = .000135
INCLINATION    = 98.3535
RA_OF_ASC_NODE = 259.8970
ARG_OF_PERICENTER = 84.3013
MEAN_ANOMALY   = 286.8865

EPHEMERIS_TYPE = 0
CLASSIFICATION_TYPE = U
NORAD_CAT_ID   = 27386
ELEMENT_SET_NO = 999
REV_AT_EPOCH   = 24112
BSTAR          = .6595E-4
MEAN_MOTION_DOT = .161E-5
MEAN_MOTION_DDOT = 0

CCSDS_OMM_VERS = 2.0
CREATION_DATE  = 
ORIGINATOR     = 

OBJECT_NAME    = IDEFIX & ARIANE 42P R/B
OBJECT_ID      = 2002-021B
CENTER_NAME    = EARTH
REF_FRAME      = TEME
TIME_SYSTEM    = UTC
MEAN_ELEMENT_THEORY = SGP/SGP4

EPOCH          = 2025-11-03T10:12:35.252064
MEAN_MOTION    = 14.30905513
ECCENTRICITY   = .00113259
INCLINATION    = 98.5723
RA_OF_ASC_NODE = 242.6395
ARG_OF_PERICENTER = 194.1652
MEAN_ANOMALY   = 165.9215

EPHEMERIS_TYPE = 0
CLASSIFICATION_TYPE = U
NORAD_CAT_ID   = 27422
ELEMENT_SET_NO = 999
REV_AT_EPOCH   = 22596
BSTAR          = .15085059E-3
MEAN_MOTION_DOT = .353E-5
MEAN_MOTION_DDOT = 0

CCSDS_OMM_VERS = 2.0
CREATION_DATE  = 
ORIGINATOR     = 

OBJECT_NAME    = AQUA
OBJECT_ID      = 2002-022A
CENTER_NAME    = EARTH
REF_FRAME      = TEME
TIME_SYSTEM    = UTC
MEAN_ELEMENT_THEORY = SGP/SGP4

EPOCH          = 2025-11-04T03:36:33.255360
MEAN_MOTION    = 14.61665069
ECCENTRICITY   = .0001176
INCLINATION    = 98.3977
RA_OF_ASC_NODE = 268.4182
ARG_OF_PERICENTER = 49.3570
MEAN_ANOMALY   = 8.9359

EPHEMERIS_TYPE = 0
CLASSIFICATION_TYPE = U
NORAD_CAT_ID   = 27424
ELEMENT_SET_NO = 999
REV_AT_EPOCH   = 25039
BSTAR          = .27395E-3
MEAN_MOTION_DOT = .1314E-4
MEAN_MOTION_DDOT = 0

CCSDS_OMM_VERS = 2.0
CREATION_DATE  = 
ORIGINATOR     = 

OBJECT_NAME    = CZ-4B R/B
OBJECT_ID      = 2002-024C
CENTER_NAME    = EARTH
REF_FRAME      = TEME
TIME_SYSTEM    = UTC
MEAN_ELEMENT_THEORY = SGP/SGP4

EPOCH          = 2025-11-04T04:00:43.057728
MEAN_MOTION    = 14.14515726
ECCENTRICITY   = .0050475
INCLINATION    = 98.9061
RA_OF_ASC_NODE = 357.0624
ARG_OF_PERICENTER = 20.6259
MEAN_ANOMALY   = 46.9159

EPHEMERIS_TYPE = 0
CLASSIFICATION_TYPE = U
NORAD_CAT_ID   = 27432
ELEMENT_SET_NO = 999
REV_AT_EPOCH   = 21149
BSTAR          = .55367E-4
MEAN_MOTION_DOT = .63E-6
MEAN_MOTION_DDOT = 0

CCSDS_OMM_VERS = 2.0
CREATION_DATE  = 
ORIGINATOR     = 

OBJECT_NAME    = MIDORI II (ADEOS-II)
OBJECT_ID      = 2002-056A
CENTER_NAME    = EARTH
REF_FRAME      = TEME
TIME_SYSTEM    = UTC
MEAN_ELEMENT_THEORY = SGP/SGP4

EPOCH          = 2025-11-03T20:38:29.685120
MEAN_MOTION    = 14.29164133
ECCENTRICITY   = .0001705
INCLINATION    = 98.7570
RA_OF_ASC_NODE = 260.6257
ARG_OF_PERICENTER = 46.5183
MEAN_ANOMALY   = 313.6140

EPHEMERIS_TYPE = 0
CLASSIFICATION_TYPE = U
NORAD_CAT_ID   = 27597
ELEMENT_SET_NO = 999
REV_AT_EPOCH   = 19232
BSTAR          = .15996E-3
MEAN_MOTION_DOT = .361E-5
MEAN_MOTION_DDOT = 0

CCSDS_OMM_VERS = 2.0
CREATION_DATE  = 
ORIGINATOR     = 

OBJECT_NAME    = H-2A R/B
OBJECT_ID      = 2002-056E
CENTER_NAME    = EARTH
REF_FRAME      = TEME
TIME_SYSTEM    = UTC
MEAN_ELEMENT_THEORY = SGP/SGP4

EPOCH          = 2025-11-04T03:29:41.873856
MEAN_MOTION    = 14.33633750
ECCENTRICITY   = .0070311
INCLINATION    = 98.3004
RA_OF_ASC_NODE = 268.4520
ARG_OF_PERICENTER = 174.7318
MEAN_ANOMALY   = 195.8471

EPHEMERIS_TYPE = 0
CLASSIFICATION_TYPE = U
NORAD_CAT_ID   = 27601
ELEMENT_SET_NO = 999
REV_AT_EPOCH   = 19612
BSTAR          = .13362E-3
MEAN_MOTION_DOT = .339E-5
MEAN_MOTION_DDOT = 0

CCSDS_OMM_VERS = 2.0
CREATION_DATE  = 
ORIGINATOR     = 

OBJECT_NAME    = CZ-4B R/B
OBJECT_ID      = 2003-049C
CENTER_NAME    = EARTH
REF_FRAME      = TEME
TIME_SYSTEM    = UTC
MEAN_ELEMENT_THEORY = SGP/SGP4

EPOCH          = 2025-11-03T22:39:55.143936
MEAN_MOTION    = 14.54852957
ECCENTRICITY   = .0047102
INCLINATION    = 98.6761
RA_OF_ASC_NODE = 293.0484
ARG_OF_PERICENTER = 255.2248
MEAN_ANOMALY   = 104.3726

EPHEMERIS_TYPE = 0
CLASSIFICATION_TYPE = U
NORAD_CAT_ID   = 28059
ELEMENT_SET_NO = 999
REV_AT_EPOCH   = 16831
BSTAR          = .13501E-3
MEAN_MOTION_DOT = .536E-5
MEAN_MOTION_DDOT = 0

CCSDS_OMM_VERS = 2.0
CREATION_DATE  = 
ORIGINATOR     = 

OBJECT_NAME    = CZ-2C R/B
OBJECT_ID      = 2004-012C
CENTER_NAME    = EARTH
REF_FRAME      = TEME
TIME_SYSTEM    = UTC
MEAN_ELEMENT_THEORY = SGP/SGP4

EPOCH          = 2025-11-04T02:21:40.675680
MEAN_MOTION    = 15.52056865
ECCENTRICITY   = .002029
INCLINATION    = 97.7502
RA_OF_ASC_NODE = 357.6215
ARG_OF_PERICENTER = 54.6589
MEAN_ANOMALY   = 305.6555

EPHEMERIS_TYPE = 0
CLASSIFICATION_TYPE = U
NORAD_CAT_ID   = 28222
ELEMENT_SET_NO = 999
REV_AT_EPOCH   = 18472
BSTAR          = .57048E-3
MEAN_MOTION_DOT = .3468E-3
MEAN_MOTION_DDOT = 0

CCSDS_OMM_VERS = 2.0
CREATION_DATE  = 
ORIGINATOR     = 

OBJECT_NAME    = SL-16 R/B
OBJECT_ID      = 2004-021B
CENTER_NAME    = EARTH
REF_FRAME      = TEME
TIME_SYSTEM    = UTC
MEAN_ELEMENT_THEORY = SGP/SGP4

EPOCH          = 2025-11-03T22:35:19.439808
MEAN_MOTION    = 14.14569580
ECCENTRICITY   = .000696
INCLINATION    = 70.9972
RA_OF_ASC_NODE = 136.3841
ARG_OF_PERICENTER = 241.4660
MEAN_ANOMALY   = 118.5762

EPHEMERIS_TYPE = 0
CLASSIFICATION_TYPE = U
NORAD_CAT_ID   = 28353
ELEMENT_SET_NO = 999
REV_AT_EPOCH   = 10505
BSTAR          = -.22073E-4
MEAN_MOTION_DOT = -.9E-6
MEAN_MOTION_DDOT = 0

CCSDS_OMM_VERS = 2.0
CREATION_DATE  = 
ORIGINATOR     = 

OBJECT_NAME    = CZ-4B R/B
OBJECT_ID      = 2004-035C
CENTER_NAME    = EARTH
REF_FRAME      = TEME
TIME_SYSTEM    = UTC
MEAN_ELEMENT_THEORY = SGP/SGP4

EPOCH          = 2025-11-04T00:40:09.145632
MEAN_MOTION    = 15.26462732
ECCENTRICITY   = .0035498
INCLINATION    = 97.3668
RA_OF_ASC_NODE = 338.9034
ARG_OF_PERICENTER = 55.7580
MEAN_ANOMALY   = 304.7013

EPHEMERIS_TYPE = 0
CLASSIFICATION_TYPE = U
NORAD_CAT_ID   = 28415
ELEMENT_SET_NO = 999
REV_AT_EPOCH   = 16072
BSTAR          = .3489E-3
MEAN_MOTION_DOT = .9193E-4
MEAN_MOTION_DDOT = 0

CCSDS_OMM_VERS = 2.0
CREATION_DATE  = 
ORIGINATOR     = 

OBJECT_NAME    = CZ-2C R/B
OBJECT_ID      = 2004-046B
CENTER_NAME    = EARTH
REF_FRAME      = TEME
TIME_SYSTEM    = UTC
MEAN_ELEMENT_THEORY = SGP/SGP4

EPOCH          = 2025-11-04T00:59:57.920640
MEAN_MOTION    = 14.26914526
ECCENTRICITY   = .0139772
INCLINATION    = 98.1950
RA_OF_ASC_NODE = 225.8325
ARG_OF_PERICENTER = 165.9400
MEAN_ANOMALY   = 194.5736

EPHEMERIS_TYPE = 0
CLASSIFICATION_TYPE = U
NORAD_CAT_ID   = 28480
ELEMENT_SET_NO = 999
REV_AT_EPOCH   = 9058
BSTAR          = .87305E-4
MEAN_MOTION_DOT = .195E-5
MEAN_MOTION_DDOT = 0

