TITAN 4B R/B            
1 26474U 00047B   25308.15553036  .00005271  00000+0  33986-3 0  9996
2 26474  67.9920  33.1854 0042672 189.1062 170.9318 15.08350940373973
ENVISAT                 
1 27386U 02009A   25308.16567468  .00000161  00000+0  65950-4 0  9994
2 27386  98.3535 259.8970 0001350  84.3013 286.8865 14.38976907241126
IDEFIX & ARIANE 42P R/B 
1 27422U 02021B   25307.42540801  .00000353  00000+0  15085-3 0  9995
2 27422  98.5723 242.6395 0011325 194.1652 165.9215 14.30905513225968
AQUA                    
1 27424U 02022A   25308.15038490  .00001314  00000+0  27395-3 0  9990
2 27424  98.3977 268.4182 0001176  49.3570   8.9359 14.61665069250395
CZ-4B R/B               
1 27432U 02024C   25308.16716502  .00000063  00000+0  55367-4 0  9990
2 27432  98.9061 357.0624 0050475  20.6259  46.9159 14.14515726211492
MIDORI II (ADEOS-II)    
1 27597U 02056A   25307.86006580  .00000361  00000+0  15996-3 0  9995
2 27597  98.7570 260.6257 0001705  46.5183 313.6140 14.29164133192325
H-2A R/B                
1 27601U 02056E   25308.14562354  .00000339  00000+0  13362-3 0  9999
2 27601  98.3004 268.4520 0070311 174.7318 195.8471 14.33633750196121
CZ-4B R/B               
1 28059U 03049C   25307.94438824  .00000536  00000+0  13501-3 0  9995
2 28059  98.6761 293.0484 0047102 255.2248 104.3726 14.54852957168317
CZ-2C R/B               
1 28222U 04012C   25308.09838745  .00034680  00000+0  57048-3 0  9992
2 28222  97.7502 357.6215 0020290  54.6589 305.6555 15.52056865184721
SL-16 R/B               
1 28353U 04021B   25307.94119722 -.00000090  00000+0 -22073-4 0  9998
2 28353  70.9972 136.3841 0006960 241.4660 118.5762 14.14569580105051
CZ-4B R/B               
1 28415U 04035C   25308.02788363  .00009193  00000+0  34890-3 0  9995
2 28415  97.3668 338.9034 0035498  55.7580 304.7013 15.26462732160722
CZ-2C R/B               
1 28480U 04046B   25308.04164260  .00000195  00000+0  87305-4 0  9998
2 28480  98.1950 225.8325 0139772 165.9400 194.5736 14.26914526 90584
